CELESTIS-02 & TAURUS R/B
1 25160U 98007D   26062.06189218  .00000023  00000+0  67109-4 0  9990
2 25160 108.0090 118.0772 0063140 313.1232 110.1452 14.22451052455429
